[{"OBJECT_NAME":"CUBEBEL 2 (EU11S)","OBJECT_ID":"2023-091K","EPOCH":"2026-03-09T21:40:29.186112","MEAN_MOTION":15.26706784,"ECCENTRICITY":0.00118653,"INCLINATION":97.517,"RA_OF_ASC_NODE":131.3579,"ARG_OF_PERICENTER":105.889,"MEAN_ANOMALY":254.3657,"EPHEMERIS_TYPE":0,"CLASSIFICATION_TYPE":"U","NORAD_CAT_ID":57175,"ELEMENT_SET_NO":999,"REV_AT_EPOCH":14914,"BSTAR":0.00056688644,"MEAN_MOTION_DOT":0.00014859,"MEAN_MOTION_DDOT":0},{"OBJECT_NAME":"STARLINK-31899","OBJECT_ID":"2024-097R","EPOCH":"2026-03-09T22:12:33.718464","MEAN_MOTION":15.2757838,"ECCENTRICITY":0.00014527,"INCLINATION":43.0034,"RA_OF_ASC_NODE":272.9595,"ARG_OF_PERICENTER":276.3659,"MEAN_ANOMALY":83.7027,"EPHEMERIS_TYPE":0,"CLASSIFICATION_TYPE":"U","NORAD_CAT_ID":59850,"ELEMENT_SET_NO":999,"REV_AT_EPOCH":10195,"BSTAR":-4.596282e-6,"MEAN_MOTION_DOT":-3.89e-6,"MEAN_MOTION_DDOT":0}]
